[
    {
        "Altitude(m)": 610405.3479924406,
        "Argument of Periapsis(deg)": 0.0,
        "Eccentricity": 0.0,
        "Inclination(deg)": 60.0,
        "Latitude(deg)": 52.111340436056956,
        "Longitude(deg)": 77.47738290614245,
        "Mean Anomaly(deg)": 114.5455,
        "RAAN(deg)": 45.0,
        "Satellite Name": "Test1 205",
        "Satellite Number": 205,
        "Semi-Major Axis(m)": 6980739.136638005,
        "Time(s)": 0
    },
    {
        "Altitude(m)": 610321.9211803923,
        "Argument of Periapsis(deg)": 0.00010418945913296404,
        "Eccentricity": 0.0,
        "Inclination(deg)": 60.0,
        "Latitude(deg)": 51.74605577875614,
        "Longitude(deg)": 78.24627835966352,
        "Mean Anomaly(deg)": 115.16560614546188,
        "RAAN(deg)": 44.99957995086026,
        "Satellite Name": "Test1 205",
        "Satellite Number": 205,
        "Semi-Major Axis(m)": 6980739.136638005,
        "Time(s)": 10
    }
]